METHANESAT              
1 59101U 24043D   26027.82906898  .00006292  00000+0  54781-3 0  9992
2 59101  97.8215 158.4449 0011664 117.7232 242.5174 14.97225678103646
GOSAT-GW (IBUKI GW)     
1 64694U 25141A   26027.80468748  .00001649  00000+0  29903-3 0  9999
2 64694  98.0469 327.4933 0001549  87.6178 272.5204 14.67553616 31251
GHGSAT-C1               
1 46278U 20061G   26027.82219802  .00037430  00000+0  43389-3 0  9991
2 46278  97.2243 109.2956 0001777 157.1632 202.9706 15.61721154301503
GHGSAT-C12              
1 64529U 25135B   26027.80840467  .00006536  00000+0  31422-3 0  9990
2 64529  97.4602 144.1080 0003965 313.2251  46.8652 15.19140788 33500
GHGSAT-C13              
1 64548U 25135W   26027.74575787  .00005689  00000+0  26831-3 0  9990
2 64548  97.4629 144.4113 0000654 152.2094 207.9176 15.19870238 33510
GHGSAT-C2               
1 47509U 21006DA  26027.12388384  .00009992  00000+0  28854-3 0  9996
2 47509  97.2381  76.8105 0004266 332.4905  27.6113 15.35852149278187
GHGSAT-C3               
1 52737U 22057F   26027.80323851  .00010987  00000+0  35620-3 0  9990
2 52737  97.6362 168.6076 0005187 257.0830 102.9831 15.32161998204026
GHGSAT-C4               
1 52746U 22057Q   26027.82258148  .00010552  00000+0  34229-3 0  9990
2 52746  97.6289 167.6012 0005529 239.9496 120.1197 15.32151613204031
GHGSAT-C5               
1 52744U 22057N   26027.84016029  .00010296  00000+0  33417-3 0  9993
2 52744  97.6451 170.0556 0006170 253.0823 106.9742 15.32140074204032
GHGSAT-C6               
1 56204U 23054AC  26027.84800686  .00019883  00000+0  37552-3 0  9991
2 56204  97.3154 295.6122 0007742 174.8212 185.3120 15.48446001156702
GHGSAT-C7               
1 56209U 23054AH  26027.82198182  .00016302  00000+0  32947-3 0  9991
2 56209  97.3115 294.6655 0008085 171.9645 188.1735 15.46520127156672
GHGSAT-C8               
1 56186U 23054J   26027.82014311  .00020015  00000+0  37784-3 0  9996
2 56186  97.3120 294.9907 0004653 188.2268 171.8907 15.48478995156682
SENTINEL-5P             
1 42969U 17064A   26027.79391045  .00000159  00000+0  96404-4 0  9994
2 42969  98.7835 330.9824 0001147  86.8439 273.2868 14.19538061429641
ENMAP                   
1 52159U 22033C   26027.80599490  .00001349  00000+0  20793-3 0  9993
2 52159  97.9768 112.0580 0001367  93.0279 267.1087 14.75021772205963
PRISMA                  
1 44072U 19015A   26027.52463669  .00001750  00000+0  21828-3 0  9997
2 44072  97.8632 104.3105 0001236  84.7141 275.4214 14.83676797371199
SENTINEL-2A             
1 40697U 15028A   26027.43861170  .00000164  00000+0  79040-4 0  9993
2 40697  98.5675 104.3440 0001151 111.6176 248.5130 14.30878427553601
SENTINEL-2B             
1 42063U 17013A   26027.85780378  .00000131  00000+0  66722-4 0  9991
2 42063  98.5645 104.6424 0001115  87.6390 272.4921 14.30821786464579
SENTINEL-2C             
1 60989U 24157A   26027.68300763  .00000238  00000+0  10744-3 0  9992
2 60989  98.5615 104.4892 0001211  83.6919 276.4401 14.30826523 72891
LANDSAT 8               
1 39084U 13008A   26027.80215737  .00000668  00000+0  15818-3 0  9991
2 39084  98.2002 100.1802 0001228  97.1817 262.9521 14.57128052677456
LANDSAT 9               
1 49260U 21088A   26027.63062664  .00000721  00000+0  17004-3 0  9994
2 49260  98.2023 100.0609 0001229  95.9225 264.2113 14.57127917230535
